[Satellite]
VERSION=1.1
NAME=ERS-2
NICKNAME=ERS-2
TLE1=1 23560U 95021A   17186.06309671  .00000972  00000-0  48198-4 0  9990
TLE2=2 23560  98.5560 180.8063 0002502 232.2558 127.8448 15.20714343178104
